{
  "norad_id": 62210,
  "name": "STARLINK-32670",
  "history": [
    {
      "epoch": "2026-03-28T14:10:15.116736Z",
      "apogee_km": 483.92587249835015,
      "perigee_km": 482.0802258251251,
      "latitude_deg": 2.8995700353303986e-05,
      "longitude_deg": 125.25733193676037,
      "height_km": 482.6285303558023,
      "semi_major_axis_km": 6861.140049161738,
      "eccentricity": 0.0001345,
      "inclination_deg": 43.0026,
      "raan_deg": 163.829,
      "arg_perigee_deg": 279.4469,
      "mean_anomaly_deg": 80.6231,
      "mean_motion_rev_day": 15.27595378
    },
    {
      "epoch": "2026-03-29T04:17:39.963264Z",
      "apogee_km": 483.57438451495455,
      "perigee_km": 482.3970158596021,
      "latitude_deg": -2.1339582661444338e-06,
      "longitude_deg": -90.49776287404433,
      "height_km": 482.3695722678359,
      "semi_major_axis_km": 6861.1227001872785,
      "eccentricity": 8.58e-05,
      "inclination_deg": 42.9992,
      "raan_deg": 160.5075,
      "arg_perigee_deg": 48.4033,
      "mean_anomaly_deg": 311.6892,
      "mean_motion_rev_day": 15.27601172
    },
    {
      "epoch": "2026-03-30T05:24:10.048320Z",
      "apogee_km": 484.0385873775431,
      "perigee_km": 482.1503764737172,
      "latitude_deg": 2.1688409725470948e-05,
      "longitude_deg": -114.06375477308248,
      "height_km": 483.0098391061979,
      "semi_major_axis_km": 6861.23148192563,
      "eccentricity": 0.0001376,
      "inclination_deg": 43.0026,
      "raan_deg": 154.598,
      "arg_perigee_deg": 261.5693,
      "mean_anomaly_deg": 98.5003,
      "mean_motion_rev_day": 15.27564843
    },
    {
      "epoch": "2026-03-30T05:24:10.049184Z",
      "apogee_km": 484.0388618268016,
      "perigee_km": 482.15010202445774,
      "latitude_deg": 2.479571227936892e-05,
      "longitude_deg": -114.06365506947594,
      "height_km": 483.0098793391102,
      "semi_major_axis_km": 6861.23148192563,
      "eccentricity": 0.00013764,
      "inclination_deg": 43.0026,
      "raan_deg": 154.5981,
      "arg_perigee_deg": 261.5693,
      "mean_anomaly_deg": 98.5003,
      "mean_motion_rev_day": 15.27564843
    },
    {
      "epoch": "2026-03-30T11:40:47.718624Z",
      "apogee_km": 484.1641101173609,
      "perigee_km": 481.93395021011656,
      "latitude_deg": -5.501745696289698e-06,
      "longitude_deg": 150.04436433992652,
      "height_km": 482.9201533634711,
      "semi_major_axis_km": 6861.186030163739,
      "eccentricity": 0.00016252,
      "inclination_deg": 43.0024,
      "raan_deg": 153.1209,
      "arg_perigee_deg": 265.1649,
      "mean_anomaly_deg": 94.9017,
      "mean_motion_rev_day": 15.27580022
    },
    {
      "epoch": "2026-03-31T20:38:05.354880Z",
      "apogee_km": 483.49431528972036,
      "perigee_km": 482.62568774932697,
      "latitude_deg": -7.717542087639982e-06,
      "longitude_deg": 6.610969767501722,
      "height_km": 482.8394919144335,
      "semi_major_axis_km": 6861.197001519523,
      "eccentricity": 6.33e-05,
      "inclination_deg": 42.9991,
      "raan_deg": 145.3644,
      "arg_perigee_deg": 90.6405,
      "mean_anomaly_deg": 269.4519,
      "mean_motion_rev_day": 15.27576358
    },
    {
      "epoch": "2026-04-01T20:10:25.222944Z",
      "apogee_km": 484.6106762499039,
      "perigee_km": 481.33655426430323,
      "latitude_deg": -1.8757340351287576e-05,
      "longitude_deg": 7.024469319364668,
      "height_km": 482.7705065766721,
      "semi_major_axis_km": 6861.110615257103,
      "eccentricity": 0.0002386,
      "inclination_deg": 43.0039,
      "raan_deg": 139.8274,
      "arg_perigee_deg": 269.3347,
      "mean_anomaly_deg": 90.7231,
      "mean_motion_rev_day": 15.27605208
    },
    {
      "epoch": "2026-04-02T11:51:59.173632Z",
      "apogee_km": 483.9734710503262,
      "perigee_km": 482.01887143250315,
      "latitude_deg": 4.141082046706206e-05,
      "longitude_deg": 127.29579390399665,
      "height_km": 482.7859873178195,
      "semi_major_axis_km": 6861.133171241414,
      "eccentricity": 0.00014244,
      "inclination_deg": 43.0001,
      "raan_deg": 136.1346,
      "arg_perigee_deg": 269.2325,
      "mean_anomaly_deg": 90.8364,
      "mean_motion_rev_day": 15.27597675
    },
    {
      "epoch": "2026-04-03T09:50:10.827456Z",
      "apogee_km": 484.43515990571814,
      "perigee_km": 481.6358015335845,
      "latitude_deg": 5.435529507218627e-05,
      "longitude_deg": 151.67387853979716,
      "height_km": 482.7326712095481,
      "semi_major_axis_km": 6861.172480719651,
      "eccentricity": 0.000204,
      "inclination_deg": 43.0006,
      "raan_deg": 130.9635,
      "arg_perigee_deg": 273.28,
      "mean_anomaly_deg": 86.7819,
      "mean_motion_rev_day": 15.27584547
    },
    {
      "epoch": "2026-04-04T10:56:41.529408Z",
      "apogee_km": 483.9403602910479,
      "perigee_km": 482.1128207570764,
      "latitude_deg": -4.373071780683702e-06,
      "longitude_deg": 128.10712001615858,
      "height_km": 482.8222314100215,
      "semi_major_axis_km": 6861.163590524062,
      "eccentricity": 0.00013318,
      "inclination_deg": 43.0027,
      "raan_deg": 125.0559,
      "arg_perigee_deg": 268.8275,
      "mean_anomaly_deg": 91.2424,
      "mean_motion_rev_day": 15.27587516
    },
    {
      "epoch": "2026-04-05T10:29:02.641632Z",
      "apogee_km": 484.50742684594115,
      "perigee_km": 481.5067740850445,
      "latitude_deg": 2.9590737710967244e-05,
      "longitude_deg": 128.51446682796953,
      "height_km": 482.5007328354328,
      "semi_major_axis_km": 6861.144100465493,
      "eccentricity": 0.00021867,
      "inclination_deg": 43.004,
      "raan_deg": 119.5179,
      "arg_perigee_deg": 280.9166,
      "mean_anomaly_deg": 79.144,
      "mean_motion_rev_day": 15.27594025
    },
    {
      "epoch": "2026-04-05T18:19:49.615680Z",
      "apogee_km": 484.06190738714304,
      "perigee_km": 481.96376776681154,
      "latitude_deg": 3.1643659989054214e-05,
      "longitude_deg": 8.64720378930017,
      "height_km": 482.74834801827285,
      "semi_major_axis_km": 6861.149837576977,
      "eccentricity": 0.0001529,
      "inclination_deg": 43.0013,
      "raan_deg": 117.6686,
      "arg_perigee_deg": 272.264,
      "mean_anomaly_deg": 87.8037,
      "mean_motion_rev_day": 15.27592109
    },
    {
      "epoch": "2026-04-06T02:10:36.382368Z",
      "apogee_km": 483.827245201549,
      "perigee_km": 482.16191134487053,
      "latitude_deg": 3.0269205325303656e-06,
      "longitude_deg": -111.21572565526456,
      "height_km": 482.7058445028,
      "semi_major_axis_km": 6861.131578273209,
      "eccentricity": 0.00012136,
      "inclination_deg": 43.0004,
      "raan_deg": 115.8228,
      "arg_perigee_deg": 274.4998,
      "mean_anomaly_deg": 85.5715,
      "mean_motion_rev_day": 15.27598207
    },
    {
      "epoch": "2026-04-07T07:59:34.156608Z",
      "apogee_km": 483.91264256005434,
      "perigee_km": 482.1474015086251,
      "latitude_deg": 2.1906481602411698e-05,
      "longitude_deg": 153.30326364794135,
      "height_km": 482.61530031272116,
      "semi_major_axis_km": 6861.167022034339,
      "eccentricity": 0.00012864,
      "inclination_deg": 43.0013,
      "raan_deg": 108.807,
      "arg_perigee_deg": 282.5291,
      "mean_anomaly_deg": 77.5417,
      "mean_motion_rev_day": 15.2758637
    },
    {
      "epoch": "2026-04-07T17:24:30.098304Z",
      "apogee_km": 483.78113026722167,
      "perigee_km": 482.1852337128912,
      "latitude_deg": 3.421909468920613e-06,
      "longitude_deg": 9.467469924321874,
      "height_km": 482.60251783025814,
      "semi_major_axis_km": 6861.120181990056,
      "eccentricity": 0.0001163,
      "inclination_deg": 43.0019,
      "raan_deg": 106.591,
      "arg_perigee_deg": 281.3749,
      "mean_anomaly_deg": 78.6972,
      "mean_motion_rev_day": 15.27602013
    },
    {
      "epoch": "2026-04-08T09:06:02.862720Z",
      "apogee_km": 483.9441867116848,
      "perigee_km": 481.930049793531,
      "latitude_deg": 1.1808844546046579e-05,
      "longitude_deg": 129.74459310428747,
      "height_km": 482.6450390164278,
      "semi_major_axis_km": 6861.074118252608,
      "eccentricity": 0.00014678,
      "inclination_deg": 43.0021,
      "raan_deg": 102.8991,
      "arg_perigee_deg": 273.9329,
      "mean_anomaly_deg": 86.1355,
      "mean_motion_rev_day": 15.27617397
    },
    {
      "epoch": "2026-04-09T00:47:37.434624Z",
      "apogee_km": 483.8586734358905,
      "perigee_km": 482.3284817924705,
      "latitude_deg": 2.203643071548743e-05,
      "longitude_deg": -109.9874336091306,
      "height_km": 483.02981455681055,
      "semi_major_axis_km": 6861.23057761418,
      "eccentricity": 0.00011151,
      "inclination_deg": 43.0016,
      "raan_deg": 99.2056,
      "arg_perigee_deg": 257.9563,
      "mean_anomaly_deg": 102.1164,
      "mean_motion_rev_day": 15.27565145
    },
    {
      "epoch": "2026-04-10T06:36:36.581760Z",
      "apogee_km": 484.3393664901896,
      "perigee_km": 481.7333556241929,
      "latitude_deg": 8.035495876875492e-07,
      "longitude_deg": 154.52507661998382,
      "height_km": 482.81865757111547,
      "semi_major_axis_km": 6861.173361057191,
      "eccentricity": 0.00018991,
      "inclination_deg": 43.0006,
      "raan_deg": 92.1891,
      "arg_perigee_deg": 269.7743,
      "mean_anomaly_deg": 90.2891,
      "mean_motion_rev_day": 15.27584253
    },
    {
      "epoch": "2026-04-11T15:33:54.204192Z",
      "apogee_km": 483.85750110745175,
      "perigee_km": 482.2217965943646,
      "latitude_deg": -5.466230489452706e-06,
      "longitude_deg": 11.094330944525552,
      "height_km": 482.8420116997728,
      "semi_major_axis_km": 6861.176648850907,
      "eccentricity": 0.0001192,
      "inclination_deg": 43.0002,
      "raan_deg": 84.4352,
      "arg_perigee_deg": 268.191,
      "mean_anomaly_deg": 91.8805,
      "mean_motion_rev_day": 15.27583155
    }
  ]
}